{
  "type": "FeatureCollection",
  "features": [
    {
      "type": "Feature",
      "properties": {
        "norad_id": 44794,
        "name": "BEIDOU-3 M21 (C43)",
        "group": "beidou",
        "lat": -52.78808301084816,
        "lon": -161.49908452350968,
        "alt_km": 21538.782283705812,
        "timestamp": "2025-12-22T09:53:37.667298+00:00",
        "meta_object_name": "BEIDOU-3 M21 (C43)",
        "meta_object_id": "2019-078B",
        "meta_epoch": "2025-12-22T00:36:11.320992",
        "meta_mean_motion": 1.86227906,
        "meta_eccentricity": 0.0004299,
        "meta_inclination": 54.0732,
        "meta_ra_of_asc_node": 306.0255,
        "meta_arg_of_pericenter": 12.7951,
        "meta_mean_anomaly": 347.2162,
        "meta_ephemeris_type": 0,
        "meta_classification_type": "U",
        "meta_norad_cat_id": 44794,
        "meta_element_set_no": 999,
        "meta_rev_at_epoch": 4135,
        "meta_bstar": 0,
        "meta_mean_motion_dot": -5.8e-07,
        "meta_mean_motion_ddot": 0,
        "tle_line1": "1 44794U 19078B   25356.02513103 -.00000058  00000+0  00000+0 0  9991",
        "tle_line2": "2 44794  54.0732 306.0255 0004299  12.7951 347.2162  1.86227906 41350"
      },
      "geometry": {
        "type": "Point",
        "coordinates": [
          -161.49908452350968,
          -52.78808301084816
        ]
      }
    },
    {
      "type": "Feature",
      "properties": {
        "norad_id": 44864,
        "name": "BEIDOU-3 M19 (C41)",
        "group": "beidou",
        "lat": 56.039750810500685,
        "lon": 168.3652283962972,
        "alt_km": 21571.86832910935,
        "timestamp": "2025-12-22T09:53:37.667309+00:00",
        "meta_object_name": "BEIDOU-3 M19 (C41)",
        "meta_object_id": "2019-090A",
        "meta_epoch": "2025-12-21T08:18:55.694880",
        "meta_mean_motion": 1.86231675,
        "meta_eccentricity": 0.00183109,
        "meta_inclination": 56.3999,
        "meta_ra_of_asc_node": 68.6763,
        "meta_arg_of_pericenter": 285.0239,
        "meta_mean_anomaly": 175.8266,
        "meta_ephemeris_type": 0,
        "meta_classification_type": "U",
        "meta_norad_cat_id": 44864,
        "meta_element_set_no": 999,
        "meta_rev_at_epoch": 4092,
        "meta_bstar": 0,
        "meta_mean_motion_dot": -3.6e-07,
        "meta_mean_motion_ddot": 0,
        "tle_line1": "1 44864U 19090A   25355.34647795 -.00000036  00000+0  00000+0 0  9998",
        "tle_line2": "2 44864  56.3999  68.6763 0018310 285.0239 175.8266  1.86231675 40926"
      },
      "geometry": {
        "type": "Point",
        "coordinates": [
          168.3652283962972,
          56.039750810500685
        ]
      }
    },
    {
      "type": "Feature",
      "properties": {
        "norad_id": 44865,
        "name": "BEIDOU-3 M20 (C42)",
        "group": "beidou",
        "lat": -4.031207240469246,
        "lon": -108.62417305498977,
        "alt_km": 21545.190206148727,
        "timestamp": "2025-12-22T09:53:37.667320+00:00",
        "meta_object_name": "BEIDOU-3 M20 (C42)",
        "meta_object_id": "2019-090B",
        "meta_epoch": "2025-12-22T03:27:20.583072",
        "meta_mean_motion": 1.86231562,
        "meta_eccentricity": 0.0015475,
        "meta_inclination": 56.4023,
        "meta_ra_of_asc_node": 68.6841,
        "meta_arg_of_pericenter": 297.2268,
        "meta_mean_anomaly": 67.9266,
        "meta_ephemeris_type": 0,
        "meta_classification_type": "U",
        "meta_norad_cat_id": 44865,
        "meta_element_set_no": 999,
        "meta_rev_at_epoch": 4092,
        "meta_bstar": 0,
        "meta_mean_motion_dot": -3e-07,
        "meta_mean_motion_ddot": 0,
        "tle_line1": "1 44865U 19090B   25356.14398823 -.00000030  00000+0  00000+0 0  9997",
        "tle_line2": "2 44865  56.4023  68.6841 0015475 297.2268  67.9266  1.86231562 40925"
      },
      "geometry": {
        "type": "Point",
        "coordinates": [
          -108.62417305498977,
          -4.031207240469246
        ]
      }
    },
    {
      "type": "Feature",
      "properties": {
        "norad_id": 45344,
        "name": "BEIDOU-3 G2 (C60)",
        "group": "beidou",
        "lat": -2.520733876497681,
        "lon": -40.320338669576635,
        "alt_km": 35779.6139716936,
        "timestamp": "2025-12-22T09:53:37.667331+00:00",
        "meta_object_name": "BEIDOU-3 G2 (C60)",
        "meta_object_id": "2020-017A",
        "meta_epoch": "2025-12-19T13:38:45.370752",
        "meta_mean_motion": 1.00273166,
        "meta_eccentricity": 0.0002079,
        "meta_inclination": 2.5096,
        "meta_ra_of_asc_node": 44.0024,
        "meta_arg_of_pericenter": 233.0917,
        "meta_mean_anomaly": 96.0359,
        "meta_ephemeris_type": 0,
        "meta_classification_type": "U",
        "meta_norad_cat_id": 45344,
        "meta_element_set_no": 999,
        "meta_rev_at_epoch": 2145,
        "meta_bstar": 0,
        "meta_mean_motion_dot": -1.18e-06,
        "meta_mean_motion_ddot": 0,
        "tle_line1": "1 45344U 20017A   25353.56858068 -.00000118  00000+0  00000+0 0  9993",
        "tle_line2": "2 45344   2.5096  44.0024 0002079 233.0917  96.0359  1.00273166 21451"
      },
      "geometry": {
        "type": "Point",
        "coordinates": [
          -40.320338669576635,
          -2.520733876497681
        ]
      }
    },
    {
      "type": "Feature",
      "properties": {
        "norad_id": 45807,
        "name": "BEIDOU-3 G3 (C61)",
        "group": "beidou",
        "lat": -1.9659331759426015,
        "lon": -9.841447075238086,
        "alt_km": 35762.483944319516,
        "timestamp": "2025-12-22T09:53:37.667343+00:00",
        "meta_object_name": "BEIDOU-3 G3 (C61)",
        "meta_object_id": "2020-040A",
        "meta_epoch": "2025-12-21T13:52:43.971744",
        "meta_mean_motion": 1.00269819,
        "meta_eccentricity": 0.0006499,
        "meta_inclination": 2.0115,
        "meta_ra_of_asc_node": 66.6552,
        "meta_arg_of_pericenter": 309.2812,
        "meta_mean_anomaly": 33.2123,
        "meta_ephemeris_type": 0,
        "meta_classification_type": "U",
        "meta_norad_cat_id": 45807,
        "meta_element_set_no": 999,
        "meta_rev_at_epoch": 2028,
        "meta_bstar": 0,
        "meta_mean_motion_dot": -3.32e-06,
        "meta_mean_motion_ddot": 0,
        "tle_line1": "1 45807U 20040A   25355.57828671 -.00000332  00000+0  00000+0 0  9991",
        "tle_line2": "2 45807   2.0115  66.6552 0006499 309.2812  33.2123  1.00269819 20280"
      },
      "geometry": {
        "type": "Point",
        "coordinates": [
          -9.841447075238086,
          -1.9659331759426015
        ]
      }
    },
    {
      "type": "Feature",
      "properties": {
        "norad_id": 56564,
        "name": "BEIDOU-3 G4 (C62)",
        "group": "beidou",
        "lat": 0.8040474719247923,
        "lon": 39.651140022436984,
        "alt_km": 35793.26276191255,
        "timestamp": "2025-12-22T09:53:37.667355+00:00",
        "meta_object_name": "BEIDOU-3 G4 (C62)",
        "meta_object_id": "2023-066A",
        "meta_epoch": "2025-12-22T04:12:38.690784",
        "meta_mean_motion": 1.00271318,
        "meta_eccentricity": 0.000267,
        "meta_inclination": 0.7955,
        "meta_ra_of_asc_node": 302.7733,
        "meta_arg_of_pericenter": 226.6445,
        "meta_mean_anomaly": 144.787,
        "meta_ephemeris_type": 0,
        "meta_classification_type": "U",
        "meta_norad_cat_id": 56564,
        "meta_element_set_no": 999,
        "meta_rev_at_epoch": 962,
        "meta_bstar": 0,
        "meta_mean_motion_dot": -8.8e-07,
        "meta_mean_motion_ddot": 0,
        "tle_line1": "1 56564U 23066A   25356.17544781 -.00000088  00000+0  00000+0 0  9996",
        "tle_line2": "2 56564   0.7955 302.7733 0002670 226.6445 144.7870  1.00271318  9624"
      },
      "geometry": {
        "type": "Point",
        "coordinates": [
          39.651140022436984,
          0.8040474719247923
        ]
      }
    },
    {
      "type": "Feature",
      "properties": {
        "norad_id": 58654,
        "name": "BEIDOU-3 M28 (C50)",
        "group": "beidou",
        "lat": -22.088976993367844,
        "lon": -95.58108516695796,
        "alt_km": 21528.118399679213,
        "timestamp": "2025-12-22T09:53:37.667366+00:00",
        "meta_object_name": "BEIDOU-3 M28 (C50)",
        "meta_object_id": "2023-207A",
        "meta_epoch": "2025-12-22T02:28:45.755040",
        "meta_mean_motion": 1.8622976,
        "meta_eccentricity": 0.0002801,
        "meta_inclination": 55.5924,
        "meta_ra_of_asc_node": 68.2843,
        "meta_arg_of_pericenter": 274.1944,
        "meta_mean_anomaly": 85.8228,
        "meta_ephemeris_type": 0,
        "meta_classification_type": "U",
        "meta_norad_cat_id": 58654,
        "meta_element_set_no": 999,
        "meta_rev_at_epoch": 1354,
        "meta_bstar": 0,
        "meta_mean_motion_dot": -3.2e-07,
        "meta_mean_motion_ddot": 0,
        "tle_line1": "1 58654U 23207A   25356.10330735 -.00000032  00000+0  00000+0 0  9999",
        "tle_line2": "2 58654  55.5924  68.2843 0002801 274.1944  85.8228  1.86229760 13540"
      },
      "geometry": {
        "type": "Point",
        "coordinates": [
          -95.58108516695796,
          -22.088976993367844
        ]
      }
    }
  ]
}